TROLL                   
1 62658U 25009BB  26068.22522958  .00013174  00000+0  48220-3 0  9994
2 62658  97.3932 150.7169 0001816  59.1850 300.9568 15.28164315118170
STARLINK-35991          
1 66861U 25281P   26068.13212077  .00034257  00000+0  12485-2 0  9992
2 66861  43.0010 346.3275 0001081 261.1147  98.9583 15.27583694 16109
